NORAD_CAT_ID,OBJECT_NAME,OBJECT_TYPE,EPOCH,MEAN_MOTION,ECCENTRICITY,INCLINATION,RA_OF_ASC_NODE,ARG_OF_PERICENTER,MEAN_ANOMALY,BSTAR,MEAN_MOTION_DOT,MEAN_MOTION_DDOT,TLE_LINE0,TLE_LINE1,TLE_LINE2,SEMIMAJOR_AXIS,PERIOD,APOGEE,PERIGEE,DECAYED
49736.0,STARLINK-3148,PAYLOAD,2022-01-24 22:00:00,15.40414274,0.000277,53.2157,67.6749,18.413,121.2583,0.0010277,0.00042028,0.0,0 STARLINK-3148,1 49736U 21115N   22024.91667824  .00042028  00000-0  10277-2 0  9997,2 49736  53.2157  67.6749 0002770  18.4130 121.2583 15.40414274  9425,6823.023,93.481,446.778,442.99800000000016,0.0
49736.0,STARLINK-3148,PAYLOAD,2022-01-25 14:00:01,15.40461943,0.0003008,53.2154,64.5357,19.6534,219.1542,0.00072225,0.00029415,0.0,0 STARLINK-3148,1 49736U 21115N   22025.58334491  .00029415  00000-0  72225-3 0  9999,2 49736  53.2154  64.5357 0003008  19.6534 219.1542 15.40461943  3622,6822.882,93.478,446.799,442.695,0.0
49736.0,STARLINK-3148,PAYLOAD,2022-01-25 22:00:00,15.40456783,0.0002763,53.2155,62.9632,21.4727,266.9598,0.0013365,0.00054949,0.0,0 STARLINK-3148,1 49736U 21115N   22025.91667824  .00054949  00000-0  13365-2 0  9994,2 49736  53.2155  62.9632 0002763  21.4727 266.9598 15.40456783  3664,6822.897,93.479,446.647,442.877,0.0
49736.0,STARLINK-3148,PAYLOAD,2022-01-26 06:00:00,15.40517481,0.0002811,53.2158,61.3934,22.8024,315.2488,-0.00086032,-0.00035688,0.0,0 STARLINK-3148,1 49736U 21115N   22026.25001157 -.00035688  00000-0 -86032-3 0  9996,2 49736  53.2158  61.3934 0002811  22.8024 315.2488 15.40517481  9636,6822.718000000003,93.475,446.501,442.665,0.0
49736.0,STARLINK-3148,PAYLOAD,2022-01-26 14:00:01,15.40486868,0.0002947,53.2155,59.8238,18.9438,8.7502,-5.9169e-05,-2.839e-05,0.0,0 STARLINK-3148,1 49736U 21115N   22026.58334491 -.00002839  00000-0 -59169-4 0  9996,2 49736  53.2155  59.8238 0002947  18.9438   8.7502 15.40486868  3625,6822.808000000001,93.477,446.684,442.663,0.0
49736.0,STARLINK-3148,PAYLOAD,2022-01-26 22:00:00,15.40456652,0.0002623,53.2158,58.2512,17.9511,59.37300000000001,-0.00019167,-8.277e-05,0.0,0 STARLINK-3148,1 49736U 21115N   22026.91667824 -.00008277  00000-0 -19167-3 0  9997,2 49736  53.2158  58.2512 0002623  17.9511  59.3730 15.40456652  3643,6822.898,93.479,446.552,442.973,0.0
49736.0,STARLINK-3148,PAYLOAD,2022-01-27 13:14:15,15.40451294,0.0002802,53.2162,55.2599,22.708,337.4049,6.6089e-05,2.314e-05,0.0,0 STARLINK-3148,1 49736U 21115N   22027.55156350  .00002314  00000-0  66089-4 0  9995,2 49736  53.2162  55.2599 0002802  22.7080 337.4049 15.40451294  8728,6822.913000000001,93.479,446.69,442.867,0.0
49736.0,STARLINK-3148,PAYLOAD,2022-01-27 22:00:00,15.40408133,0.0002683,53.2164,53.5396,18.4026,207.6369,0.00188,0.00077564,0.0,0 STARLINK-3148,1 49736U 21115N   22027.91667824  .00077564  00000-0  18800-2 0  9993,2 49736  53.2164  53.5396 0002683  18.4026 207.6369 15.40408133  9891,6823.041,93.482,446.736,443.075,0.0
49736.0,STARLINK-3148,PAYLOAD,2022-01-28 10:00:00,15.40436562,0.0002895,53.2172,51.1859,18.1085,102.2915,0.00086267,0.00035209,0.0,0 STARLINK-3148,1 49736U 21115N   22028.41667824  .00035209  00000-0  86267-3 0  9992,2 49736  53.2172  51.1859 0002895  18.1085 102.2915 15.40436562  9967,6822.956999999999,93.48,446.797,442.847,0.0
49736.0,STARLINK-3148,PAYLOAD,2022-01-28 12:00:00,15.40444516,0.0002886,53.2171,50.7934,17.3416,205.4509,0.00051877,0.00020978,0.0,0 STARLINK-3148,1 49736U 21115N   22028.50001157  .00020978  00000-0  51877-3 0  9999,2 49736  53.2171  50.7934 0002886  17.3416 205.4509 15.40444516  3624,6822.933000000001,93.48,446.768,442.829,0.0
49736.0,STARLINK-3148,PAYLOAD,2022-01-28 22:00:00,15.40487219,0.000294,53.2174,48.8272,11.8604,2.9051,-0.0131759999999999,-0.00508294,0.0,0 STARLINK-3148,1 49736U 21115N   22028.91667824 -.00508294  00000-0 -13176-1 0  9995,2 49736  53.2174  48.8272 0002940  11.8604   2.9051 15.40487219 10042,6822.807,93.477,446.67800000000005,442.666,0.0
49736.0,STARLINK-3148,PAYLOAD,2022-01-29 06:00:00,15.40128537,0.0003039,53.2175,47.2583,13.4213,50.7543,-0.017471,-0.00661343,0.0,0 STARLINK-3148,1 49736U 21115N   22029.25001157 -.00661343  00000-0 -17471-1 0  9991,2 49736  53.2175  47.2583 0003039  13.4213  50.7543 15.40128537 10092,6823.8669999999975,93.499,447.805,443.658,0.0
49736.0,STARLINK-3148,PAYLOAD,2022-01-29 14:00:01,15.396619199999998,0.000252,53.2172,45.6901,19.5033,93.4661,-0.01771,-0.00660107,0.0,0 STARLINK-3148,1 49736U 21115N   22029.58334491 -.00660107  00000-0 -17710-1 0  9990,2 49736  53.2172  45.6901 0002520  19.5033  93.4661 15.39661920 10143,6825.245,93.527,448.83,445.39,0.0
49736.0,STARLINK-3148,PAYLOAD,2022-01-29 22:00:00,15.39195975,0.000269,53.2173,44.1208,18.3482,142.9677,-0.018038,-0.00661951,0.0,0 STARLINK-3148,1 49736U 21115N   22029.91667824 -.00661951  00000-0 -18038-1 0  9998,2 49736  53.2173  44.1208 0002690  18.3482 142.9677 15.39195975  3647,6826.623000000001,93.555,450.324,446.651,0.0
49736.0,STARLINK-3148,PAYLOAD,2022-01-30 14:00:01,15.38261569,0.0001786,53.2171,40.9907,5.8669,250.4581,-0.018564,-0.00660601,0.0,0 STARLINK-3148,1 49736U 21115N   22030.58334491 -.00660601  00000-0 -18564-1 0  9999,2 49736  53.2171  40.9907 0001786   5.8669 250.4581 15.38261569  3649,6829.387,93.612,452.472,450.032,0.0
49736.0,STARLINK-3148,PAYLOAD,2022-01-30 22:00:00,15.377871,0.0002528,53.2174,39.4249,322.2801,340.712,-0.018406,-0.00646043,0.0,0 STARLINK-3148,1 49736U 21115N   22030.91667824 -.00646043  00000-0 -18406-1 0  9994,2 49736  53.2174  39.4249 0002528 322.2801 340.7120 15.37787100 10354,6830.792,93.641,454.383,450.93,0.0
49736.0,STARLINK-3148,PAYLOAD,2022-01-31 14:00:01,15.36860101,0.0002921999999999,53.2172,36.3015,267.6177,127.0797,-0.01921,-0.00653704,0.0,0 STARLINK-3148,1 49736U 21115N   22031.58335648 -.00653704  00000-0 -19210-1 0  9990,2 49736  53.2172  36.3015 0002922 267.6177 127.0797 15.36860101 10454,6833.538000000001,93.698,457.4,453.406,0.0
49736.0,STARLINK-3148,PAYLOAD,2022-01-31 22:00:01,15.36398856,8.53e-05,53.2174,34.739000000000004,316.8441,122.8349,-0.019845,-0.0066421,0.0,0 STARLINK-3148,1 49736U 21115N   22031.91668981 -.00664210  00000-0 -19845-1 0  9994,2 49736  53.2174  34.7390 0000853 316.8441 122.8349 15.36398856  3648,6834.906,93.726,457.354,456.18800000000016,0.0
49736.0,STARLINK-3148,PAYLOAD,2022-02-01 14:00:01,15.35420474,0.0001357,53.2166,31.6213,66.3482,101.634,-0.018411,-0.00594725,0.0,0 STARLINK-3148,1 49736U 21115N   22032.58335648 -.00594725  00000-0 -18411-1 0  9990,2 49736  53.2166  31.6213 0001357  66.3482 101.6340 15.35420474 10602,6837.809,93.785,460.602,458.746,0.0
49736.0,STARLINK-3148,PAYLOAD,2022-02-01 22:00:00,15.34997275,0.0001358,53.2172,30.063,72.8969,138.3002,-0.020702,-0.00662475,0.0,0 STARLINK-3148,1 49736U 21115N   22032.91667824 -.00662475  00000-0 -20702-1 0  9995,2 49736  53.2172  30.0630 0001358  72.8969 138.3002 15.34997275  3632,6839.066,93.811,461.859,460.002,0.0
49736.0,STARLINK-3148,PAYLOAD,2022-02-02 06:00:00,15.34528755,0.0001477,53.2173,28.5084,61.0922,192.8438,-0.020898,-0.00659053,0.0,0 STARLINK-3148,1 49736U 21115N   22033.25001157 -.00659053  00000-0 -20898-1 0  9998,2 49736  53.2173  28.5084 0001477  61.0922 192.8438 15.34528755 10717,6840.458000000001,93.84,463.333,461.312,0.0
49736.0,STARLINK-3148,PAYLOAD,2022-02-02 14:00:01,15.34064811,0.000124,53.2172,26.9526,81.3508,214.763,-0.021365,-0.00663504,0.0,0 STARLINK-3148,1 49736U 21115N   22033.58334491 -.00663504  00000-0 -21365-1 0  9990,2 49736  53.2172  26.9526 0001240  81.3508 214.7630 15.34064811  3642,6841.837,93.868,464.55,462.853,0.0
49736.0,STARLINK-3148,PAYLOAD,2022-02-02 22:00:00,15.33594749,0.0001224,53.2173,25.3971,70.3693,267.3643,-0.021472,-0.00657373,0.0,0 STARLINK-3148,1 49736U 21115N   22033.91667824 -.00657373  00000-0 -21472-1 0  9992,2 49736  53.2173  25.3971 0001224  70.3693 267.3643 15.33594749  3651,6843.235,93.897,465.937,464.262,0.0
49736.0,STARLINK-3148,PAYLOAD,2022-02-03 14:00:01,15.32663632,0.0001151,53.2172,22.2934,75.0899,344.196,-0.022225,-0.00660396,0.0,0 STARLINK-3148,1 49736U 21115N   22034.58334491 -.00660396  00000-0 -22225-1 0  9993,2 49736  53.2172  22.2934 0001151  75.0899 344.1960 15.32663632 10914,6846.005999999999,93.954,468.659,467.083,0.0
49736.0,STARLINK-3148,PAYLOAD,2022-02-03 22:00:01,15.32196747,0.0001334,53.2174,20.7409,60.9369,38.3498,-0.022533,-0.00659818,0.0,0 STARLINK-3148,1 49736U 21115N   22034.91668981 -.00659818  00000-0 -22533-1 0  9993,2 49736  53.2174  20.7409 0001334  60.9369  38.3498 15.32196747  3642,6847.397,93.983,470.175,468.348,0.0
49736.0,STARLINK-3148,PAYLOAD,2022-02-04 14:00:01,15.31263959,0.000136,53.2173,17.6436,71.2714,106.2047,-0.023228,-0.00660473,0.0,0 STARLINK-3148,1 49736U 21115N   22035.58335648 -.00660473  00000-0 -23228-1 0  9999,2 49736  53.2173  17.6436 0001360  71.2714 106.2047 15.31263959 11074,6850.177,94.04,472.974,471.11,0.0
49736.0,STARLINK-3148,PAYLOAD,2022-02-04 22:00:00,15.30797472,0.000144,53.2173,16.0948,66.3589,149.3078,-0.023551,-0.00659999,0.0,0 STARLINK-3148,1 49736U 21115N   22035.91667824 -.00659999  00000-0 -23551-1 0  9990,2 49736  53.2173  16.0948 0001440  66.3589 149.3078 15.30797472  3635,6851.569,94.069,474.42,472.447,0.0
49736.0,STARLINK-3148,PAYLOAD,2022-02-05 14:00:01,15.298209,0.0001308,53.2172,13.0028,60.0728,230.4416,-0.021913,-0.00599793,0.0,0 STARLINK-3148,1 49736U 21115N   22036.58334491 -.00599793  00000-0 -21913-1 0  9990,2 49736  53.2172  13.0028 0001308  60.0728 230.4416 15.29820900  3616,6854.484,94.129,477.246,475.453,0.0
49736.0,STARLINK-3148,PAYLOAD,2022-02-05 22:00:01,15.29395807,0.0001315,53.2175,11.4586,66.324,260.8055,-0.024462,-0.00656525,0.0,0 STARLINK-3148,1 49736U 21115N   22036.91668981 -.00656525  00000-0 -24462-1 0  9990,2 49736  53.2175  11.4586 0001315  66.3240 260.8055 15.29395807 11276,6855.754,94.155,478.521,476.718,0.0
